CCSDS_OMM_VERS = 2.0
CREATION_DATE  = 
ORIGINATOR     = 

OBJECT_NAME    = STARLINK-36720
OBJECT_ID      = 2026-022H
CENTER_NAME    = EARTH
REF_FRAME      = TEME
TIME_SYSTEM    = UTC
MEAN_ELEMENT_THEORY = SGP/SGP4

EPOCH          = 2026-02-19T13:10:20.340192
MEAN_MOTION    = 15.75224483
ECCENTRICITY   = .00012074
INCLINATION    = 97.2827
RA_OF_ASC_NODE = 83.6383
ARG_OF_PERICENTER = 115.3249
MEAN_ANOMALY   = 244.8141

EPHEMERIS_TYPE = 0
CLASSIFICATION_TYPE = U
NORAD_CAT_ID   = 67655
ELEMENT_SET_NO = 999
REV_AT_EPOCH   = 269
BSTAR          = .94731812E-3
MEAN_MOTION_DOT = .143785E-2
MEAN_MOTION_DDOT = 0

CCSDS_OMM_VERS = 2.0
CREATION_DATE  = 
ORIGINATOR     = 

OBJECT_NAME    = STARLINK-36688
OBJECT_ID      = 2026-022J
CENTER_NAME    = EARTH
REF_FRAME      = TEME
TIME_SYSTEM    = UTC
MEAN_ELEMENT_THEORY = SGP/SGP4

EPOCH          = 2026-02-19T13:09:18.967680
MEAN_MOTION    = 15.75171079
ECCENTRICITY   = .00017089
INCLINATION    = 97.2828
RA_OF_ASC_NODE = 83.6383
ARG_OF_PERICENTER = 108.0591
MEAN_ANOMALY   = 252.0860

EPHEMERIS_TYPE = 0
CLASSIFICATION_TYPE = U
NORAD_CAT_ID   = 67656
ELEMENT_SET_NO = 999
REV_AT_EPOCH   = 269
BSTAR          = .94310719E-3
MEAN_MOTION_DOT = .142802E-2
MEAN_MOTION_DDOT = 0

CCSDS_OMM_VERS = 2.0
CREATION_DATE  = 
ORIGINATOR     = 

OBJECT_NAME    = STARLINK-36706
OBJECT_ID      = 2026-022K
CENTER_NAME    = EARTH
REF_FRAME      = TEME
TIME_SYSTEM    = UTC
MEAN_ELEMENT_THEORY = SGP/SGP4

EPOCH          = 2026-02-19T13:07:17.593824
MEAN_MOTION    = 15.75213324
ECCENTRICITY   = .00016092
INCLINATION    = 97.2831
RA_OF_ASC_NODE = 83.6395
ARG_OF_PERICENTER = 83.5314
MEAN_ANOMALY   = 276.6134

EPHEMERIS_TYPE = 0
CLASSIFICATION_TYPE = U
NORAD_CAT_ID   = 67657
ELEMENT_SET_NO = 999
REV_AT_EPOCH   = 269
BSTAR          = .8770955E-3
MEAN_MOTION_DOT = .132884E-2
MEAN_MOTION_DDOT = 0

CCSDS_OMM_VERS = 2.0
CREATION_DATE  = 
ORIGINATOR     = 

OBJECT_NAME    = STARLINK-36701
OBJECT_ID      = 2026-022L
CENTER_NAME    = EARTH
REF_FRAME      = TEME
TIME_SYSTEM    = UTC
MEAN_ELEMENT_THEORY = SGP/SGP4

EPOCH          = 2026-02-19T13:05:45.877632
MEAN_MOTION    = 15.75230821
ECCENTRICITY   = .00012287
INCLINATION    = 97.2830
RA_OF_ASC_NODE = 83.6416
ARG_OF_PERICENTER = 105.6900
MEAN_ANOMALY   = 254.4501

EPHEMERIS_TYPE = 0
CLASSIFICATION_TYPE = U
NORAD_CAT_ID   = 67658
ELEMENT_SET_NO = 999
REV_AT_EPOCH   = 269
BSTAR          = .97662143E-3
MEAN_MOTION_DOT = .148358E-2
MEAN_MOTION_DDOT = 0

CCSDS_OMM_VERS = 2.0
CREATION_DATE  = 
ORIGINATOR     = 

OBJECT_NAME    = STARLINK-36642
OBJECT_ID      = 2026-022M
CENTER_NAME    = EARTH
REF_FRAME      = TEME
TIME_SYSTEM    = UTC
MEAN_ELEMENT_THEORY = SGP/SGP4

EPOCH          = 2026-02-19T13:04:14.301408
MEAN_MOTION    = 15.75225818
ECCENTRICITY   = .00008913
INCLINATION    = 97.2830
RA_OF_ASC_NODE = 83.6435
ARG_OF_PERICENTER = 106.3885
MEAN_ANOMALY   = 253.7478

EPHEMERIS_TYPE = 0
CLASSIFICATION_TYPE = U
NORAD_CAT_ID   = 67659
ELEMENT_SET_NO = 999
REV_AT_EPOCH   = 269
BSTAR          = .83453412E-3
MEAN_MOTION_DOT = .126399E-2
MEAN_MOTION_DDOT = 0

CCSDS_OMM_VERS = 2.0
CREATION_DATE  = 
ORIGINATOR     = 

OBJECT_NAME    = STARLINK-36673
OBJECT_ID      = 2026-022N
CENTER_NAME    = EARTH
REF_FRAME      = TEME
TIME_SYSTEM    = UTC
MEAN_ELEMENT_THEORY = SGP/SGP4

EPOCH          = 2026-02-19T14:00:03.000384
MEAN_MOTION    = 15.75234021
ECCENTRICITY   = .00015881
INCLINATION    = 97.2858
RA_OF_ASC_NODE = 83.6861
ARG_OF_PERICENTER = 116.5322
MEAN_ANOMALY   = 111.2328

EPHEMERIS_TYPE = 0
CLASSIFICATION_TYPE = U
NORAD_CAT_ID   = 67660
ELEMENT_SET_NO = 999
REV_AT_EPOCH   = 398
BSTAR          = -.63559698E-3
MEAN_MOTION_DOT = -.94079E-3
MEAN_MOTION_DDOT = 0

CCSDS_OMM_VERS = 2.0
CREATION_DATE  = 
ORIGINATOR     = 

OBJECT_NAME    = STARLINK-36674
OBJECT_ID      = 2026-022P
CENTER_NAME    = EARTH
REF_FRAME      = TEME
TIME_SYSTEM    = UTC
MEAN_ELEMENT_THEORY = SGP/SGP4

EPOCH          = 2026-02-19T14:00:03.000384
MEAN_MOTION    = 15.75248357
ECCENTRICITY   = .00013164
INCLINATION    = 97.2837
RA_OF_ASC_NODE = 83.6913
ARG_OF_PERICENTER = 91.8930
MEAN_ANOMALY   = 143.8481

EPHEMERIS_TYPE = 0
CLASSIFICATION_TYPE = U
NORAD_CAT_ID   = 67661
ELEMENT_SET_NO = 999
REV_AT_EPOCH   = 398
BSTAR          = -.60108298E-3
MEAN_MOTION_DOT = -.89081E-3
MEAN_MOTION_DDOT = 0

CCSDS_OMM_VERS = 2.0
CREATION_DATE  = 
ORIGINATOR     = 

OBJECT_NAME    = STARLINK-36700
OBJECT_ID      = 2026-022Q
CENTER_NAME    = EARTH
REF_FRAME      = TEME
TIME_SYSTEM    = UTC
MEAN_ELEMENT_THEORY = SGP/SGP4

EPOCH          = 2026-02-19T14:00:03.000384
MEAN_MOTION    = 15.75250752
ECCENTRICITY   = .00015529
INCLINATION    = 97.2841
RA_OF_ASC_NODE = 83.6957
ARG_OF_PERICENTER = 124.9815
MEAN_ANOMALY   = 122.7540

EPHEMERIS_TYPE = 0
CLASSIFICATION_TYPE = U
NORAD_CAT_ID   = 67662
ELEMENT_SET_NO = 999
REV_AT_EPOCH   = 398
BSTAR          = -.47359656E-3
MEAN_MOTION_DOT = -.70377E-3
MEAN_MOTION_DDOT = 0

CCSDS_OMM_VERS = 2.0
CREATION_DATE  = 
ORIGINATOR     = 

OBJECT_NAME    = STARLINK-36675
OBJECT_ID      = 2026-022R
CENTER_NAME    = EARTH
REF_FRAME      = TEME
TIME_SYSTEM    = UTC
MEAN_ELEMENT_THEORY = SGP/SGP4

EPOCH          = 2026-02-19T14:00:03.000384
MEAN_MOTION    = 15.75266890
ECCENTRICITY   = .00013524
INCLINATION    = 97.2840
RA_OF_ASC_NODE = 83.6929
ARG_OF_PERICENTER = 87.7902
MEAN_ANOMALY   = 151.9500

EPHEMERIS_TYPE = 0
CLASSIFICATION_TYPE = U
NORAD_CAT_ID   = 67663
ELEMENT_SET_NO = 999
REV_AT_EPOCH   = 398
BSTAR          = -.78937841E-3
MEAN_MOTION_DOT = -.116666E-2
MEAN_MOTION_DDOT = 0

CCSDS_OMM_VERS = 2.0
CREATION_DATE  = 
ORIGINATOR     = 

OBJECT_NAME    = STARLINK-36404
OBJECT_ID      = 2026-022S
CENTER_NAME    = EARTH
REF_FRAME      = TEME
TIME_SYSTEM    = UTC
MEAN_ELEMENT_THEORY = SGP/SGP4

EPOCH          = 2026-02-19T14:00:03.000384
MEAN_MOTION    = 15.75219026
ECCENTRICITY   = .00011072
INCLINATION    = 97.2860
RA_OF_ASC_NODE = 83.6975
ARG_OF_PERICENTER = 100.4058
MEAN_ANOMALY   = 157.3465

EPHEMERIS_TYPE = 0
CLASSIFICATION_TYPE = U
NORAD_CAT_ID   = 67664
ELEMENT_SET_NO = 999
REV_AT_EPOCH   = 395
BSTAR          = -.31978062E-3
MEAN_MOTION_DOT = -.47621E-3
MEAN_MOTION_DDOT = 0

CCSDS_OMM_VERS = 2.0
CREATION_DATE  = 
ORIGINATOR     = 

OBJECT_NAME    = STARLINK-36399
OBJECT_ID      = 2026-022T
CENTER_NAME    = EARTH
REF_FRAME      = TEME
TIME_SYSTEM    = UTC
MEAN_ELEMENT_THEORY = SGP/SGP4

EPOCH          = 2026-02-19T14:00:03.000384
MEAN_MOTION    = 15.75280615
ECCENTRICITY   = .00010791
INCLINATION    = 97.2842
RA_OF_ASC_NODE = 83.7009
ARG_OF_PERICENTER = 106.5293
MEAN_ANOMALY   = 155.2023

EPHEMERIS_TYPE = 0
CLASSIFICATION_TYPE = U
NORAD_CAT_ID   = 67665
ELEMENT_SET_NO = 999
REV_AT_EPOCH   = 395
BSTAR          = -.8363505E-3
MEAN_MOTION_DOT = -.123571E-2
MEAN_MOTION_DDOT = 0

CCSDS_OMM_VERS = 2.0
CREATION_DATE  = 
ORIGINATOR     = 

OBJECT_NAME    = STARLINK-36365
OBJECT_ID      = 2026-022U
CENTER_NAME    = EARTH
REF_FRAME      = TEME
TIME_SYSTEM    = UTC
MEAN_ELEMENT_THEORY = SGP/SGP4

EPOCH          = 2026-02-19T14:00:03.000384
MEAN_MOTION    = 15.75259701
ECCENTRICITY   = .00013942
INCLINATION    = 97.2842
RA_OF_ASC_NODE = 83.7041
ARG_OF_PERICENTER = 101.9635
MEAN_ANOMALY   = 167.7746

EPHEMERIS_TYPE = 0
CLASSIFICATION_TYPE = U
NORAD_CAT_ID   = 67666
ELEMENT_SET_NO = 999
REV_AT_EPOCH   = 398
BSTAR          = -.62862781E-3
MEAN_MOTION_DOT = -.9316E-3
MEAN_MOTION_DDOT = 0

