STARLINK-36720          
1 67655U 26022H   26050.54884653  .00143785  00000+0  94732-3 0  9992
2 67655  97.2827  83.6383 0001207 115.3249 244.8141 15.75224483  2694
STARLINK-36688          
1 67656U 26022J   26050.54813620  .00142802  00000+0  94311-3 0  9991
2 67656  97.2828  83.6383 0001708 108.0591 252.0860 15.75171079  2692
STARLINK-36706          
1 67657U 26022K   26050.54673141  .00132884  00000+0  87710-3 0  9998
2 67657  97.2831  83.6395 0001609  83.5314 276.6134 15.75213324  2696
STARLINK-36701          
1 67658U 26022L   26050.54566988  .00148358  00000+0  97662-3 0  9999
2 67658  97.2830  83.6416 0001228 105.6900 254.4501 15.75230821  2697
STARLINK-36642          
1 67659U 26022M   26050.54460997  .00126399  00000+0  83453-3 0  9997
2 67659  97.2830  83.6435 0000891 106.3885 253.7478 15.75225818  2699
STARLINK-36673          
1 67660U 26022N   26050.58336806 -.00094079  00000+0 -63560-3 0  9992
2 67660  97.2858  83.6861 0001588 116.5322 111.2328 15.75234021  3988
STARLINK-36674          
1 67661U 26022P   26050.58336806 -.00089081  00000+0 -60108-3 0  9995
2 67661  97.2837  83.6913 0001316  91.8930 143.8481 15.75248357  3981
STARLINK-36700          
1 67662U 26022Q   26050.58336806 -.00070377  00000+0 -47360-3 0  9999
2 67662  97.2841  83.6957 0001552 124.9815 122.7540 15.75250752  3981
STARLINK-36675          
1 67663U 26022R   26050.58336806 -.00116666  00000+0 -78938-3 0  9997
2 67663  97.2840  83.6929 0001352  87.7902 151.9500 15.75266890  3981
STARLINK-36404          
1 67664U 26022S   26050.58336806 -.00047621  00000+0 -31978-3 0  9995
2 67664  97.2860  83.6975 0001107 100.4058 157.3465 15.75219026  3954
STARLINK-36399          
1 67665U 26022T   26050.58336806 -.00123571  00000+0 -83635-3 0  9992
2 67665  97.2842  83.7009 0001079 106.5293 155.2023 15.75280615  3959
STARLINK-36365          
1 67666U 26022U   26050.58336806 -.00093160  00000+0 -62863-3 0  9993
2 67666  97.2842  83.7041 0001394 101.9635 167.7746 15.75259701  3980
